QIANFAN-9               
1 60387U 24140J   25344.90690322  .00000146  00000+0  20784-3 0  9998
2 60387  88.9762 299.5261 0015184 197.2305 162.8333 13.50981124 67087
QIANFAN-10              
1 60388U 24140K   25344.91109238  .00000130  00000+0  18181-3 0  9992
2 60388  88.9772 298.8726 0014388 172.9715 187.1641 13.50981561 67219
QIANFAN-11              
1 60389U 24140L   25344.87410704  .00000133  00000+0  18690-3 0  9999
2 60389  88.9698 299.4651 0013253 196.1457 163.9273 13.50977838 66867
QIANFAN-12              
1 60390U 24140M   25344.89460146  .00000127  00000+0  17834-3 0  9990
2 60390  88.9741 299.5055 0011837 204.4036 155.6556 13.50978640 66997
QIANFAN-13              
1 60391U 24140N   25344.93986329  .00000136  00000+0  19266-3 0  9993
2 60391  88.9753 299.6005 0011597 207.0914 152.9633 13.50979187 67022
QIANFAN-14              
1 60392U 24140P   25344.89039307  .00000125  00000+0  17477-3 0  9994
2 60392  88.9732 299.5036 0015254 208.7469 151.2843 13.50978676 67027
QIANFAN-15              
1 60393U 24140Q   25344.89868028  .00000134  00000+0  18849-3 0  9999
2 60393  88.9756 299.4588 0011472 191.7924 168.2960 13.50977474 67012
QIANFAN-16              
1 60394U 24140R   25344.88645814  .00000123  00000+0  17265-3 0  9994
2 60394  88.9759 299.5802 0013114 212.2915 147.7434 13.50982806 66922
